[{"OBJECT_NAME":"STARLINK-35781","OBJECT_ID":"2025-299J","EPOCH":"2026-03-09T07:15:07.559712","MEAN_MOTION":15.2841751,"ECCENTRICITY":6.167e-5,"INCLINATION":42.9989,"RA_OF_ASC_NODE":171.4742,"ARG_OF_PERICENTER":246.1794,"MEAN_ANOMALY":113.8993,"EPHEMERIS_TYPE":0,"CLASSIFICATION_TYPE":"U","NORAD_CAT_ID":67110,"ELEMENT_SET_NO":999,"REV_AT_EPOCH":1305,"BSTAR":0.00090285523,"MEAN_MOTION_DOT":0.00025312,"MEAN_MOTION_DDOT":0},{"OBJECT_NAME":"TITAN 4B R\/B","OBJECT_ID":"2005-016B","EPOCH":"2026-03-09T20:27:57.848832","MEAN_MOTION":15.42682045,"ECCENTRICITY":0.00616552,"INCLINATION":56.9964,"RA_OF_ASC_NODE":245.9411,"ARG_OF_PERICENTER":20.2929,"MEAN_ANOMALY":340.0555,"EPHEMERIS_TYPE":0,"CLASSIFICATION_TYPE":"U","NORAD_CAT_ID":28647,"ELEMENT_SET_NO":999,"REV_AT_EPOCH":37707,"BSTAR":0.00046483736,"MEAN_MOTION_DOT":0.0002164,"MEAN_MOTION_DDOT":0}]
